578 Happelia,e,6.142754,29.566575,261.501137,2.7543358,0,0.19255645,221.494417,3/2/2003,2000.0,9.2,0.15
579 Sidonia,e,11.020684,82.854756,232.089586,3.01107396,0,0.08213557,313.543166,3/2/2003,2000.0,7.85,0.15
580 Selene,e,3.651585,99.393856,327.536706,3.2327409,0,0.08084337,301.368193,3/2/2003,2000.0,9.6,0.15
581 Tauntonia,e,21.864689,102.820932,30.733824,3.21298892,0,0.02642207,263.8762,3/2/2003,2000.0,9.4,0.15
582 Olympia,e,30.015948,155.819209,310.171585,2.60956204,0,0.22563801,22.38646,3/2/2003,2000.0,9.11,0.15
583 Klotilde,e,8.25218,258.099767,254.19767,3.17076179,0,0.16231275,311.561105,3/2/2003,2000.0,9.01,0.15
584 Semiramis,e,10.721964,282.459537,84.428872,2.37338576,0,0.23430304,286.350041,3/2/2003,2000.0,8.71,0.24
585 Bilkis,e,7.556453,180.381419,328.224454,2.43052262,0,0.12945048,227.034519,3/2/2003,2000.0,10.4,0.15
586 Thekla,e,1.622382,229.340316,242.640214,3.04168835,0,0.06405655,136.282017,3/2/2003,2000.0,9.21,0.15
589 Croatia,e,10.82327,177.946254,212.984409,3.13446324,0,0.04288828,311.549313,3/2/2003,2000.0,9.14,0.15
590 Tomyris,e,11.174057,106.415528,341.149454,3.00024568,0,0.07417143,315.721688,3/2/2003,2000.0,9.9,0.15
591 Irmgard,e,12.475704,334.390438,217.642217,2.68102768,0,0.20485775,22.31707,3/2/2003,2000.0,10.64,0.15
592 Bathseba,e,10.179828,168.455787,253.119274,3.02499504,0,0.13106483,258.486585,3/2/2003,2000.0,9.3,0.15
593 Titania,e,16.893533,76.232994,31.161154,2.69753929,0,0.21823845,357.060732,3/2/2003,2000.0,9.28,0.06
594 Mireille,e,32.582784,155.197525,77.009954,2.62934285,0,0.35127305,245.222922,3/2/2003,2000.0,12.01,0.15
595 Polyxena,e,17.88065,24.256743,273.734512,3.20878854,0,0.05507017,240.40321,3/2/2003,2000.0,8,0.15
596 Scheila,e,14.664293,70.750495,176.522403,2.92770987,0,0.1649616,56.666427,3/2/2003,2000.0,8.9,0.15
597 Bandusia,e,12.823309,36.763893,307.046917,2.67169798,0,0.14449215,312.262555,3/2/2003,2000.0,9.4,0.15
598 Octavia,e,12.237748,91.928645,291.453857,2.75956513,0,0.24968513,192.146826,3/2/2003,2000.0,9.53,0.15
599 Luisa,e,16.671826,44.700639,293.114638,2.77082879,0,0.2935321,267.100948,3/2/2003,2000.0,8.71,0.15
600 Musa,e,10.20182,139.576094,111.747441,2.65931565,0,0.05577615,116.978216,3/2/2003,2000.0,10.18,0.15
601 Nerthus,e,16.082661,169.932976,153.160448,3.13381389,0,0.10507182,122.99903,3/2/2003,2000.0,9.65,0.15
602 Marianna,e,15.139336,331.924512,44.473506,3.09782479,0,0.23868054,69.263767,3/2/2003,2000.0,8.31,0.15
603 Timandra,e,8.015162,343.5963,158.707058,2.53948855,0,0.17384228,334.738582,3/2/2003,2000.0,12.1,0.15
604 Tekmessa,e,4.42559,12.282411,29.922615,3.14141693,0,0.20321033,204.277591,3/2/2003,2000.0,9.2,0.15
605 Juvisia,e,19.658257,342.939796,16.020383,2.99721977,0,0.14177711,241.670974,3/2/2003,2000.0,9.9,0.15
606 Brangane,e,8.64072,318.887488,57.035568,2.58780483,0,0.21796223,55.29655,3/2/2003,2000.0,10.38,0.15
607 Jenny,e,10.108308,285.449641,291.323077,2.85160151,0,0.0780216,152.896207,3/2/2003,2000.0,9.5,0.15
608 Adolfine,e,9.377455,294.190522,72.184976,3.03068026,0,0.11739255,120.216231,3/2/2003,2000.0,10.6,0.15
609 Fulvia,e,4.177523,165.558413,121.521313,3.08688837,0,0.04016267,355.553271,3/2/2003,2000.0,10,0.15
611 Valeria,e,13.448818,189.889139,253.311871,2.98090437,0,0.11917353,216.928061,3/2/2003,2000.0,9.19,0.15
612 Veronika,e,20.736669,203.971277,119.030663,3.15313622,0,0.26365639,125.206016,3/2/2003,2000.0,11.2,0.15
613 Ginevra,e,7.679383,354.942394,67.565892,2.92175232,0,0.0609408,81.48537,3/2/2003,2000.0,9.67,0.15
614 Pia,e,7.026879,217.43153,208.113404,2.69494177,0,0.10875086,255.736752,3/2/2003,2000.0,11,0.15
615 Roswitha,e,2.763341,13.691754,247.191688,2.63069948,0,0.11133307,326.424042,3/2/2003,2000.0,10.36,0.15
616 Elly,e,14.966747,356.316992,107.859898,2.55334826,0,0.05825271,154.464765,3/2/2003,2000.0,10.68,0.15
618 Elfriede,e,17.01534,111.259587,228.578131,3.18810001,0,0.07975071,13.422953,3/2/2003,2000.0,8.26,0.15
619 Triberga,e,13.772256,187.603429,177.26196,2.51983421,0,0.07436859,62.916708,3/2/2003,2000.0,9.95,0.15
620 Drakonia,e,7.732386,0.220602,336.016204,2.43683181,0,0.13355564,178.167735,3/2/2003,2000.0,11.28,0.15
621 Werdandi,e,2.319653,67.466028,30.734743,3.11769342,0,0.1488168,146.144862,3/2/2003,2000.0,10.49,0.15
622 Esther,e,8.649557,142.289071,255.953719,2.41492527,0,0.24219055,247.474829,3/2/2003,2000.0,10.17,0.15
623 Chimaera,e,14.143174,308.439273,124.53778,2.46087019,0,0.11340738,15.328759,3/2/2003,2000.0,10.97,0.15
625 Xenia,e,12.057344,127.684516,200.131575,2.64560509,0,0.22587317,292.720684,3/2/2003,2000.0,10,0.15
626 Notburga,e,25.354493,341.805974,43.682574,2.57329883,0,0.24308973,187.812729,3/2/2003,2000.0,9,0.15
627 Charis,e,6.471936,142.685157,175.510557,2.89964804,0,0.06331816,342.388833,3/2/2003,2000.0,9.95,0.15
628 Christine,e,11.528468,112.196831,206.545586,2.58096772,0,0.04418667,241.765365,3/2/2003,2000.0,9.25,0.15
629 Bernardina,e,9.327988,87.395059,30.466803,3.13362909,0,0.16042624,148.292755,3/2/2003,2000.0,9.9,0.15
630 Euphemia,e,13.84606,105.618009,40.537865,2.62357148,0,0.11293861,216.714221,3/2/2003,2000.0,11,0.15
631 Philippina,e,18.91871,224.828458,279.810958,2.7910823,0,0.08458407,260.421217,3/2/2003,2000.0,8.7,0.15
632 Pyrrha,e,2.216497,356.717963,252.75985,2.66166958,0,0.19297278,2.016331,3/2/2003,2000.0,11.6,0.15
633 Zelima,e,10.919355,147.616159,186.192324,3.01641545,0,0.08957284,15.829231,3/2/2003,2000.0,9.73,0.15
634 Ute,e,12.29086,133.515317,221.513084,3.04260928,0,0.18807025,266.116661,3/2/2003,2000.0,9.6,0.15
635 Vundtia,e,11.045351,183.478865,218.754097,3.14179048,0,0.08038925,298.898913,3/2/2003,2000.0,9.01,0.15
636 Erika,e,7.933212,34.809986,298.259235,2.90789546,0,0.17490276,288.842989,3/2/2003,2000.0,9.5,0.15
638 Moira,e,7.715368,103.291404,129.064474,2.73372091,0,0.16232148,65.81012,3/2/2003,2000.0,9.8,0.15
639 Latona,e,8.574009,280.466827,65.489345,3.0162165,0,0.1049124,58.181289,3/2/2003,2000.0,8.2,0.15
640 Brambilla,e,13.384542,235.081232,35.243747,3.15959478,0,0.0804419,51.517576,3/2/2003,2000.0,8.99,0.15
641 Agnes,e,1.713578,41.087378,17.676464,2.22009078,0,0.12827119,256.105362,3/2/2003,2000.0,12.1,0.15
642 Clara,e,8.139854,6.802296,111.650589,3.19778455,0,0.11928522,187.731464,3/2/2003,2000.0,9.98,0.15
643 Scheherezade,e,13.769154,252.40892,235.859378,3.35465449,0,0.06569532,92.772065,3/2/2003,2000.0,9.72,0.15
644 Cosima,e,1.040681,109.923174,268.38692,2.59928013,0,0.15619798,285.688876,3/2/2003,2000.0,11.13,0.15
645 Agrippina,e,7.02561,0.754204,81.916,3.20421643,0,0.15702356,204.721024,3/2/2003,2000.0,9.94,0.15
646 Kastalia,e,6.919746,303.073714,37.329201,2.32452641,0,0.2140296,344.772116,3/2/2003,2000.0,12.5,0.15
647 Adelgunde,e,7.322252,254.975201,175.791725,2.44187773,0,0.19345901,308.537956,3/2/2003,2000.0,11.41,0.15
648 Pippa,e,9.772851,291.756254,172.820986,3.21667343,0,0.19181584,215.192063,3/2/2003,2000.0,9.68,0.15
649 Josefa,e,12.677339,357.217532,348.911651,2.54938375,0,0.2757135,166.819575,3/2/2003,2000.0,12.4,0.15
651 Antikleia,e,10.746378,38.386387,354.44967,3.02594261,0,0.09307045,54.890769,3/2/2003,2000.0,10.01,0.15
652 Jubilatrix,e,15.764227,86.354892,276.910311,2.55496383,0,0.12634787,161.391928,3/2/2003,2000.0,11.4,0.15
653 Berenike,e,11.289085,133.250002,49.734375,3.01654025,0,0.04679448,319.420143,3/2/2003,2000.0,9.18,0.15
654 Zelinda,e,18.120966,278.613002,213.948222,2.29666275,0,0.23175895,104.415471,3/2/2003,2000.0,8.52,0.15
655 Briseis,e,6.505722,130.19609,280.83932,2.98609106,0,0.0917528,151.138001,3/2/2003,2000.0,9.6,0.15
656 Beagle,e,0.511487,184.659214,333.106136,3.14761533,0,0.13681782,308.319147,3/2/2003,2000.0,10,0.15
657 Gunlod,e,10.219275,297.8312,245.213956,2.61085522,0,0.11465435,142.079626,3/2/2003,2000.0,10.93,0.15
658 Asteria,e,1.512111,351.41008,59.39279,2.85453127,0,0.0609091,319.627789,3/2/2003,2000.0,10.54,0.15
660 Crescentia,e,15.220724,157.183422,105.361577,2.53371204,0,0.10686559,68.604534,3/2/2003,2000.0,9.14,0.15
661 Cloelia,e,9.259948,336.030594,168.868789,3.01467008,0,0.03740393,59.199919,3/2/2003,2000.0,9.63,0.15
662 Newtonia,e,4.116581,133.938512,165.573411,2.55466134,0,0.21485689,21.785544,3/2/2003,2000.0,10.5,0.15
663 Gerlinde,e,17.84679,233.100502,310.395655,3.06211322,0,0.15472916,316.018698,3/2/2003,2000.0,9.21,0.15
664 Judith,e,8.589988,172.869192,96.766104,3.21087904,0,0.2185874,271.744993,3/2/2003,2000.0,9.97,0.15
665 Sabine,e,14.747256,298.601294,319.953183,3.14908522,0,0.16646705,3.626482,3/2/2003,2000.0,8.1,0.15
666 Desdemona,e,7.592704,215.662138,174.028383,2.59167186,0,0.23916448,186.41487,3/2/2003,2000.0,10.9,0.15
667 Denise,e,25.410514,153.352159,306.829732,3.18004377,0,0.19317626,73.553417,3/2/2003,2000.0,8.9,0.15
668 Dora,e,6.829227,214.774321,112.66895,2.79439442,0,0.23466441,70.689591,3/2/2003,2000.0,11.8,0.15
669 Kypria,e,10.792231,170.956248,115.462122,3.00979861,0,0.08311824,72.830925,3/2/2003,2000.0,10.24,0.15
670 Ottegebe,e,7.536509,174.898676,194.095907,2.80355806,0,0.19194942,26.423498,3/2/2003,2000.0,9.8,0.15
671 Carnegia,e,8.029819,0.786931,97.286903,3.09583316,0,0.06789645,34.921243,3/2/2003,2000.0,10,0.15
672 Astarte,e,11.140429,344.046071,309.169277,2.55535669,0,0.13517321,97.049916,3/2/2003,2000.0,11.1,0.15
673 Edda,e,2.874661,226.954081,254.247003,2.8147643,0,0.00883665,238.333321,3/2/2003,2000.0,10.2,0.15
674 Rachele,e,13.495439,58.289477,42.14511,2.92698049,0,0.19019195,261.371487,3/2/2003,2000.0,7.42,0.15
675 Ludmilla,e,9.804154,263.442168,152.149218,2.76693189,0,0.20469144,131.293009,3/2/2003,2000.0,7.91,0.15
676 Melitta,e,12.87714,150.620531,181.628821,3.05779893,0,0.12903667,30.457637,3/2/2003,2000.0,9.3,0.15
677 Aaltje,e,8.480527,272.972722,280.988895,2.95636041,0,0.0471295,114.058543,3/2/2003,2000.0,9.7,0.15
678 Fredegundis,e,6.080454,281.7721,119.756524,2.57417981,0,0.21641214,344.22476,3/2/2003,2000.0,9.02,0.15
679 Pax,e,24.372032,112.556894,266.260703,2.58657383,0,0.31207069,312.692683,3/2/2003,2000.0,9.01,0.15
680 Genoveva,e,17.568576,38.859278,243.784,3.16655204,0,0.28171584,244.995833,3/2/2003,2000.0,9.31,0.15
